BEIDOU-3 IGSO-3 (C40)   
1 44709U 19073A   24175.72519622 -.00000189  00000+0  00000+0 0  9994
2 44709  56.0384 288.6583 0039278 182.0502 177.9480  1.00247548 17183
BEIDOU-3 G2 (C60)       
1 45344U 20017A   24190.13823237 -.00000145  00000+0  00000+0 0  9994
2 45344   2.3410  30.4599 0001694 134.3207 251.6069  1.00272225 16166
BEIDOU-3 G3 (C61)       
1 45807U 20040A   24189.79154255 -.00000357  00000+0  00000+0 0  9996
2 45807   0.8115  44.8791 0004437  15.1903 261.6548  1.00268167 14975
TJS-4                   
1 44637U 19070A   24189.56650250 -.00000174  00000+0  00000+0 0  9995
2 44637   0.0449 106.4205 0002588 298.4644 168.6492  1.00272046 17423
TIBA-1                  
1 44800U 19080A   24189.84288699  .00000153  00000+0  00000+0 0  9999
2 44800   0.0524 351.7103 0002090 142.0646 131.4406  1.00274958 16960
INMARSAT GX5            
1 44801U 19080B   24189.55211138  .00000071  00000+0  00000+0 0  9991
2 44801   0.0376  25.4826 0001864  78.2442  32.0258  1.00270917 16990
JCSAT-18 (KACIFIC 1)    
1 44868U 19091A   24189.62063539 -.00000205  00000+0  00000+0 0  9994
2 44868   0.0416 206.6919 0000740  25.0239  67.7364  1.00270184 16977
ELEKTRO-L 3             
1 44903U 19095A   24190.14841274 -.00000100  00000+0  00000+0 0  9991
2 44903   0.0747 147.4126 0000364  28.8358 239.7990  1.00271457 16588
SHIJIAN-20 (SJ-20)      
1 44910U 19097A   24189.42126323 -.00000074  00000+0  00000+0 0  9991
2 44910   3.0936  83.7352 0006578  77.0222 349.7785  1.00270649 16587
TJS-5                   
1 44978U 20002A   24189.87688278 -.00000345  00000+0  00000+0 0  9995
2 44978   0.1738 267.2285 0001306 326.2469 116.0636  1.00270779 16572
GSAT-30                 
1 45026U 20005A   24189.35147997 -.00000169  00000+0  00000+0 0  9998
2 45026   0.0167  55.9539 0003434  36.4939  42.8806  1.00271321 16391
EUTELSAT KONNECT        
1 45027U 20005B   24189.76601066  .00000046  00000+0  00000+0 0  9999
2 45027   0.0597  88.8618 0000473 125.2102 355.0776  1.00271278 17208
JCSAT-17                
1 45245U 20013A   24189.79163069 -.00000316  00000+0  00000+0 0  9990
2 45245   5.5785 350.1168 0003503 128.6616 228.4445  1.00272112 16133
GEO-KOMPSAT-2B          
1 45246U 20013B   24189.64691568 -.00000347  00000+0  00000+0 0  9999
2 45246   0.0494 214.0553 0000411  37.1213  36.0543  1.00271510 16132
AEHF-6 (USA 298)        
1 45465U 20022B   24189.79197877 -.00000297  00000+0  00000+0 0  9996
2 45465   4.1734 298.4682 0041313   6.2606  44.3091  1.00275991 15872
APSTAR-6D               
1 45863U 20045A   24189.62618958 -.00000321  00000+0  00000+0 0  9991
2 45863   0.0163  56.3587 0002947 166.8695  62.2656  1.00268950 14749
KOREASAT 116            
1 45920U 20048A   24189.57302918 -.00000366  00000+0  00000+0 0  9997
2 45920   0.0153  31.6121 0000733  81.8374 135.0481  1.00270082 14523
EXPRESS 103             
1 45985U 20053A   24189.83625670 -.00000283  00000+0  00000+0 0  9994
2 45985   0.0228  44.6949 0000372 247.4855  31.6487  1.00269094 14520
EXPRESS 80              
1 45986U 20053B   24188.98497378 -.00000139  00000+0  00000+0 0  9992
2 45986   0.0190   8.3356 0001142  21.2200 330.4508  1.00269456 14511
BSAT-4B                 
1 46112U 20056A   24189.57172385 -.00000353  00000+0  00000+0 0  9999
2 46112   0.0525 127.5517 0004090   2.3158 111.7925  1.00270802 14289
MEV-2                   
1 46113U 20056B   24188.40474618 -.00000015  00000+0  00000+0 0  9990
2 46113   0.0284 281.4317 0000690 167.0507 341.0996  1.00270417 73428
GALAXY 30 (G-30)        
1 46114U 20056C   24189.73969582  .00000033  00000+0  00000+0 0  9996
2 46114   0.0187  34.7947 0001684  71.0448 321.6337  1.00272516 14296
GAOFEN-13 01            
1 46610U 20071A   24189.85763623 -.00000366  00000+0  00000+0 0  9995
2 46610   0.6714  87.5744 0014425 277.6677 347.4650  1.00272328 13783
TIANTONG-1 2            
1 46916U 20082A   24189.57476963 -.00000357  00000+0  00000+0 0  9993
2 46916   2.3001 293.6742 0001305 254.7356  69.4548  1.00273643 13532
LUCAS (JDRS-1)          
1 47202U 20089A   24189.76716354 -.00000239  00000+0  00000+0 0  9990
2 47202   0.0178  48.2665 0002651  56.0303 188.8283  1.00274193 13284
SXM-7                   
1 47240U 20096A   24186.31292944 -.00000206  00000+0  00000+0 0  9996
2 47240   0.0292 101.6404 0004498  29.0600 179.5610  1.00269284   304
CMS-01                  
1 47256U 20099A   24189.12827403 -.00000168  00000+0  00000+0 0  9999
2 47256   0.0396  86.2524 0004799 185.5633 142.9281  1.00271061 13077
TURKSAT 5A              
1 47306U 21001A   24190.12822477  .00000151  00000+0  00000+0 0  9998
2 47306   0.0280  81.8035 0000190 192.5645  89.2856  1.00270509 12880
TIANTONG-1 3            
1 47321U 21003A   24190.13858046 -.00000155  00000+0  00000+0 0  9994
2 47321   2.8326 312.6991 0002959 178.5442 286.7509  1.00270983 12861
TJS-6                   
1 47613U 21010A   24190.17306424  .00000039  00000+0  00000+0 0  9998
2 47613   0.4337  87.4013 0002056  83.0706 356.8779  1.00271337 12697
SBIRS GEO-5 (USA 315)   
1 48618U 21042A   24190.12648431  .00000118  00000+0  00000+0 0  9999
2 48618   6.1139 325.7072 0001417 144.0143 243.2771  1.00272564 11628
FENGYUN 4B              
1 48808U 21047A   24189.57132458 -.00000332  00000+0  00000+0 0  9998
2 48808   0.0510  47.8149 0005329  74.2730 114.1399  1.00265212 11460
