OBJECT_NAME,OBJECT_ID,EPOCH,MEAN_MOTION,ECCENTRICITY,INCLINATION,RA_OF_ASC_NODE,ARG_OF_PERICENTER,MEAN_ANOMALY,EPHEMERIS_TYPE,CLASSIFICATION_TYPE,NORAD_CAT_ID,ELEMENT_SET_NO,REV_AT_EPOCH,BSTAR,MEAN_MOTION_DOT,MEAN_MOTION_DDOT
TJS-4,2019-070A,2024-07-07T13:35:45.816000,1.00272046,.0002588,0.0449,106.4205,298.4644,168.6492,0,U,44637,999,1742,0,-.174E-5,0
BEIDOU-3 IGSO-3,2019-073A,2024-06-23T17:24:16.953408,1.00247548,.0039278,56.0384,288.6583,182.0502,177.9480,0,U,44709,999,1718,0,-.189E-5,0
TIBA-1,2019-080A,2024-07-07T20:13:45.435936,1.00274958,.000209,0.0524,351.7103,142.0646,131.4406,0,U,44800,999,1696,0,.153E-5,0
INMARSAT GX5,2019-080B,2024-07-07T13:15:02.423232,1.00270917,.0001864,0.0376,25.4826,78.2442,32.0258,0,U,44801,999,1699,0,.71E-6,0
JCSAT-18 (KACIFIC 1),2019-091A,2024-07-07T14:53:42.897696,1.00270184,.000074,0.0416,206.6919,25.0239,67.7364,0,U,44868,999,1697,0,-.205E-5,0
ELEKTRO-L 3,2019-095A,2024-07-08T03:33:42.860736,1.00271457,.0000364,0.0747,147.4126,28.8358,239.7990,0,U,44903,999,1658,0,-.1E-5,0
SHIJIAN-20 (SJ-20),2019-097A,2024-07-07T10:06:37.143072,1.00270649,.0006578,3.0936,83.7352,77.0222,349.7785,0,U,44910,999,1658,0,-.74E-6,0
TJS-5,2020-002A,2024-07-07T21:02:42.672192,1.00270779,.0001306,0.1738,267.2285,326.2469,116.0636,0,U,44978,999,1657,0,-.345E-5,0
GSAT-30,2020-005A,2024-07-07T08:26:07.869408,1.00271321,.0003434,0.0167,55.9539,36.4939,42.8806,0,U,45026,999,1639,0,-.169E-5,0
EUTELSAT KONNECT,2020-005B,2024-07-07T18:23:03.321024,1.00271278,.0000473,0.0597,88.8618,125.2102,355.0776,0,U,45027,999,1720,0,.46E-6,0
JCSAT-17,2020-013A,2024-07-07T18:59:56.891616,1.00272112,.0003503,5.5785,350.1168,128.6616,228.4445,0,U,45245,999,1613,0,-.316E-5,0
GEO-KOMPSAT-2B,2020-013B,2024-07-07T15:31:33.514752,1.00271510,.0000411,0.0494,214.0553,37.1213,36.0543,0,U,45246,999,1613,0,-.347E-5,0
BEIDOU-3 G2,2020-017A,2024-07-08T03:19:03.276768,1.00272225,.0001694,2.3410,30.4599,134.3207,251.6069,0,U,45344,999,1616,0,-.145E-5,0
AEHF-6 (USA 298),2020-022B,2024-07-07T19:00:26.965728,1.00275991,.0041313,4.1734,298.4682,6.2606,44.3091,0,U,45465,999,1587,0,-.297E-5,0
BEIDOU-3 G3,2020-040A,2024-07-07T18:59:49.276320,1.00268167,.0004437,0.8115,44.8791,15.1903,261.6548,0,U,45807,999,1497,0,-.357E-5,0
APSTAR-6D,2020-045A,2024-07-07T15:01:42.779712,1.00268950,.0002947,0.0163,56.3587,166.8695,62.2656,0,U,45863,999,1474,0,-.321E-5,0
KOREASAT 116,2020-048A,2024-07-07T13:45:09.721152,1.00270082,.0000733,0.0153,31.6121,81.8374,135.0481,0,U,45920,999,1452,0,-.366E-5,0
EXPRESS 103,2020-053A,2024-07-07T20:04:12.578880,1.00269094,.0000372,0.0228,44.6949,247.4855,31.6487,0,U,45985,999,1452,0,-.283E-5,0
EXPRESS 80,2020-053B,2024-07-06T23:38:21.734592,1.00269456,.0001142,0.0190,8.3356,21.2200,330.4508,0,U,45986,999,1451,0,-.139E-5,0
BSAT-4B,2020-056A,2024-07-07T13:43:16.940640,1.00270802,.000409,0.0525,127.5517,2.3158,111.7925,0,U,46112,999,1428,0,-.353E-5,0
MEV-2,2020-056B,2024-07-06T09:42:50.069952,1.00270417,.000069,0.0284,281.4317,167.0507,341.0996,0,U,46113,999,7342,0,-.15E-6,0
GALAXY 30 (G-30),2020-056C,2024-07-07T17:45:09.718848,1.00272516,.0001684,0.0187,34.7947,71.0448,321.6337,0,U,46114,999,1429,0,.33E-6,0
GAOFEN-13 01,2020-071A,2024-07-07T20:34:59.770272,1.00272328,.0014425,0.6714,87.5744,277.6677,347.4650,0,U,46610,999,1378,0,-.366E-5,0
TIANTONG-1 2,2020-082A,2024-07-07T13:47:40.096032,1.00273643,.0001305,2.3001,293.6742,254.7356,69.4548,0,U,46916,999,1353,0,-.357E-5,0
LUCAS (JDRS-1),2020-089A,2024-07-07T18:24:42.929856,1.00274193,.0002651,0.0178,48.2665,56.0303,188.8283,0,U,47202,999,1328,0,-.239E-5,0
SXM-7,2020-096A,2024-07-04T07:30:37.103616,1.00269284,.0004498,0.0292,101.6404,29.0600,179.5610,0,U,47240,999,30,0,-.206E-5,0
CMS-01,2020-099A,2024-07-07T03:04:42.876192,1.00271061,.0004799,0.0396,86.2524,185.5633,142.9281,0,U,47256,999,1307,0,-.168E-5,0
TURKSAT 5A,2021-001A,2024-07-08T03:04:38.620128,1.00270509,.000019,0.0280,81.8035,192.5645,89.2856,0,U,47306,999,1288,0,.151E-5,0
TIANTONG-1 3,2021-003A,2024-07-08T03:19:33.351744,1.00270983,.0002959,2.8326,312.6991,178.5442,286.7509,0,U,47321,999,1286,0,-.155E-5,0
TJS-6,2021-010A,2024-07-08T04:09:12.750336,1.00271337,.0002056,0.4337,87.4013,83.0706,356.8779,0,U,47613,999,1269,0,.39E-6,0
SBIRS GEO-5 (USA 315),2021-042A,2024-07-08T03:02:08.244384,1.00272564,.0001417,6.1139,325.7072,144.0143,243.2771,0,U,48618,999,1162,0,.118E-5,0
FENGYUN 4B,2021-047A,2024-07-07T13:42:42.443712,1.00265212,.0005329,0.0510,47.8149,74.2730,114.1399,0,U,48808,999,1146,0,-.332E-5,0
